
CubeSX-Sirius-HSE
1 47951U 21022V   25103.83250342  .00197720  00000-0  16479-2 0  9996
2 47951  97.4225  13.7550 0010835 124.8025 235.4258 15.69414509224873
CubeSX-HSE
1 47952U 21022W   25103.85556815  .00192098  00000-0  15654-2 0  9990
2 47952  97.4238  14.0118 0010750 121.4360 238.7954 15.69979221224891
GRBAlpha
1 47959U 21022AD  25103.82736622  .00183509  00000-0  15281-2 0  9993
2 47959  97.4223  14.1078 0010588 124.2896 235.9369 15.69481186223719
TUBIN
1 48900U 21059X   25103.87923275  .00060310  00000-0  90335-3 0  9995
2 48900  97.6720 268.7460 0003300 102.3365 257.8258 15.54762348211212
LEDSAT
1 49069U 21073D   25103.61757256  .00080805  00000-0  12956-2 0  9997
2 49069  97.3936 183.1015 0010838 277.2668  82.7352 15.52737157202570
CUTE
1 49263U 21088D   25103.45826926  .00026380  00000-0  56940-3 0  9992
2 49263  97.4541 178.1470 0009945  94.6972 265.5412 15.44473158195606
TeikyoSat 4
1 49396U 21102B   25102.86963879  .00004658  00000-0  31197-3 0  9990
2 49396  97.4161 143.3712 0011848 338.0485  22.0234 15.07314636187853
Z-Sat
1 49399U 21102E   25103.85060062  .00007642  00000-0  42551-3 0  9997
2 49399  97.3866 147.0737 0016626 303.3240  56.6400 15.13789548188391
KOSEN 1
1 49402U 21102H   25103.58924057  .00011951  00000-0  56749-3 0  9997
2 49402  97.3774 149.8190 0014370 278.1522  81.8083 15.19296138188631
HO-113
1 50466U 21131B   25103.88359444  .00001279  00000-0  41412-3 0  9999
2 50466  98.5082 193.5243 0003092 316.4871  43.6073 14.40719117173285
IRIS-A
1 51044U 22002BN  25103.46451447  .00222198  00000-0  14777-2 0  9998
2 51044  97.3301 180.8270 0001087 254.3429 105.7716 15.74784959180836
Foresail-1
1 52766U 22057AL  25103.79776108  .00168078  00000-0  12590-2 0  9997
2 52766  97.6036 249.7378 0003274 175.5219 184.6074 15.72136037160917
SNUGLITE 2
1 52899U 22065F   25103.38668724  .00003120  00000-0  61748-3 0  9998
2 52899  98.1591 245.9513 0006384 295.2749  64.7791 14.63012950148127
IO-117
1 53106U 22080B   25051.21822557 -.00000003  00000-0  00000+0 0  9995
2 53106  70.1434 106.3440 0008542  48.0089 312.1297  6.42557744 61200
UmKA 1 (RS40S)
1 57172U 23091G   25103.87093349  .00010165  00000-0  55376-3 0  9993
2 57172  97.5640 159.5617 0015497 164.7657 195.4045 15.14502067 98894
CubeBel-2 (EU11S)
1 57175U 23091K   25103.84135085  .00016264  00000-0  80263-3 0  9996
2 57175  97.5637 160.3567 0013301 173.4835 186.6574 15.17901830 98943
VERONIKA
1 58261U 23174F   25103.86993811  .00114598  00000-0  16137-2 0  9993
2 58261  97.4165 187.2578 0007623 236.9690 123.0833 15.56217644 79824
ENSO
1 58470U 23185J   25103.86059435  .00064517  00000-0  11774-2 0  9999
2 58470  97.3775 177.4225 0006759 272.0536  87.9941 15.49186950 76238
EIRSAT-1
1 58472U 23185L   25103.87974763  .00101733  00000-0  14450-2 0  9998
2 58472  97.3753 178.5701 0006323 266.3947  93.6584 15.56038963 76310
SONATE-2
1 59112U 24043Q   25103.63976355  .00030583  00000-0  94570-3 0  9993
2 59112  97.5052 233.7966 0010500 317.4157  42.6270 15.33399237 61607
MO-122
1 60209U 24125G   25103.53478564  .00028773  00000-0  87887-3 0  9992
2 60209  97.2867 315.8589 0019026 346.1116  13.9601 15.33672771 43208
GRBBeta
1 60237U 24128C   25103.89576483  .00008142  00000-0  61887-3 0  9994
2 60237  61.9913 277.1098 0046615  45.2449 315.2419 15.02001579 41687
Curium One
1 60242U 24128H   25103.22041810  .00016715  00000-0  11869-2 0  9997
2 60242  61.9813 278.5294 0046240  40.7415 319.7119 15.04021003 41606
ROBUSTA-3A
1 60243U 24128J   25103.47238287  .00014456  00000-0  10417-2 0  9999
2 60243  61.9881 278.2948 0044771  38.4818 321.9451 15.03614487 41633
CatSat
1 60246U 24125J   25103.32371935  .00017596  00000-0  61041-3 0  9999
2 60246  97.2648 315.4787 0042115 298.9798  60.7224 15.28993984 41235
HYPERVIEW-1G (RS66S)
1 61772U 24199AP  25103.86906597  .00031046  00000-0  97914-3 0  9996
2 61772  97.3620 332.9222 0015373  42.8643 317.3795 15.32701742 68260
AO-123
1 61781U 24199AY  25103.86586980  .00011318  00000-0  42282-3 0  9994
2 61781  97.3630 332.3375 0017287  43.9878 316.2733 15.27386691 68224
ZIMSAT 2
1 61783U 24199BA  25103.88430737  .00048309  00000-0  13691-2 0  9997
2 61783  97.3607 333.1951 0015832  41.6947 318.5501 15.35976366 71433
HADES-R (SO-124)
1 62690U 25009CK  25102.68047673  .00064168  00000-0  26092-2 0  9996
2 62690  97.4121 183.8991 0002525 253.5931 106.5029 15.24287838 13319
HYDRA-T
1 62692U 25009CM  25102.67386124  .00055882  00000-0  22642-2 0  9994
2 62692  97.4126 183.9070 0002595 247.3348 112.7616 15.24450644 13313
JINJUSat 1B
1 63210U 25052A   25103.18751687  .00025132  00000-0  12013-2 0  9992
2 63210  97.4489 358.0801 0005509 140.7872 219.3763 15.18982587  4535
NUSHSAT 1
1 63211U 25052B   25103.18796343  .00027647  00000-0  13190-2 0  9991
2 63211  97.4479 358.0764 0005410 144.6467 215.5127 15.19029292  4535
TEVEL2-4
1 63213U 25052D   25103.12575010  .00025383  00000-0  12197-2 0  9994
2 63213  97.4394 357.9781 0003963 153.7587 206.3849 15.18803865  4528
TEVEL2-5
1 63214U 25052E   25103.19170916  .00026689  00000-0  12822-2 0  9993
2 63214  97.4396 358.0430 0004006 152.9518 207.1926 15.18800441  4531
TEVEL2-6
1 63215U 25052F   25103.19235182  .00026741  00000-0  12861-2 0  9993
2 63215  97.4396 358.0424 0003983 154.7625 205.3804 15.18761972  4537
TEVEL2-1
1 63217U 25052H   25102.93221267  .00024049  00000-0  11641-2 0  9999
2 63217  97.4371 357.7702 0003573 168.7801 191.3514 15.18561394  4496
TEVEL2-2
1 63218U 25052J   25102.60290284  .00021790  00000-0  10562-2 0  9990
2 63218  97.4372 357.4465 0003530 170.5210 189.6091 15.18534778  4440
TEVEL2-3
1 63219U 25052K   25103.65720310  .00022870  00000-0  11064-2 0  9993
2 63219  97.4370 358.4832 0003683 166.0013 194.1324 15.18591821  4608
TEVEL2-8
1 63237U 25052AD  25103.15111620  .00024419  00000-0  12201-2 0  9991
2 63237  97.4435 357.9588 0007459 200.4821 159.6114 15.17432125  4521
TEVEL2-9
1 63238U 25052AE  25103.15162075  .00023894  00000-0  11952-2 0  9990
2 63238  97.4437 357.9588 0007514 200.7730 159.3199 15.17397045  4529
